start=new Date('2022-07-17T00:00:00.000Z').valueOf();
sats=[{"TIME_SYSTEM":"UTC","LAUNCH_DATE":"2021-03-11","TLE_LINE2":"2 47829  53.0546 122.0799 0001415  67.2591 292.8547 15.06400772 75322","MEAN_ELEMENT_THEORY":"SGP4","RA_OF_ASC_NODE":"122.0799","ECCENTRICITY":"0.00014150","ARG_OF_PERICENTER":"67.2591","COUNTRY_CODE":"US","NORAD_CAT_ID":"47829","DECAY_DATE":null,"TLE_LINE1":"1 47829U 21018AU  22197.49451440  .00004322  00000-0  30888-3 0  9995","MEAN_MOTION_DDOT":"0.0000000000000","FILE":"3515512","ELEMENT_SET_NO":"999","MEAN_ANOMALY":"292.8547","MEAN_MOTION_DOT":"0.00004322","RCS_SIZE":"LARGE","REV_AT_EPOCH":"7532","GP_ID":"208246974","EPOCH":"2022-07-16T11:52:06.044160","SEMIMAJOR_AXIS":"6925.346","CLASSIFICATION_TYPE":"U","MEAN_MOTION":"15.06400772","OBJECT_ID":"2021-018AU","PERIOD":"95.592","PERIAPSIS":"546.231","OBJECT_NAME":"STARLINK-2416","BSTAR":"0.00030888000000","EPHEMERIS_TYPE":"0","APOAPSIS":"548.191","OBJECT_TYPE":"PAYLOAD","CENTER_NAME":"EARTH","INCLINATION":"53.0546","SITE":"AFETR","REF_FRAME":"TEME"},{"REF_FRAME":"TEME","INCLINATION":"53.0549","CENTER_NAME":"EARTH","SITE":"AFETR","OBJECT_TYPE":"PAYLOAD","EPHEMERIS_TYPE":"0","BSTAR":"0.00007680300000","APOAPSIS":"548.507","PERIAPSIS":"545.894","OBJECT_NAME":"STARLINK-2419","CLASSIFICATION_TYPE":"U","MEAN_MOTION":"15.06404244","PERIOD":"95.592","OBJECT_ID":"2021-018AV","GP_ID":"208270332","EPOCH":"2022-07-16T19:44:30.317568","SEMIMAJOR_AXIS":"6925.336","MEAN_MOTION_DOT":"0.00000863","MEAN_ANOMALY":"318.4563","REV_AT_EPOCH":"7570","RCS_SIZE":"LARGE","ELEMENT_SET_NO":"999","MEAN_MOTION_DDOT":"0.0000000000000","FILE":"3515618","DECAY_DATE":null,"TLE_LINE1":"1 47830U 21018AV  22197.82257312  .00000863  00000-0  76803-4 0  9990","NORAD_CAT_ID":"47830","COUNTRY_CODE":"US","ECCENTRICITY":"0.00018860","RA_OF_ASC_NODE":"120.6177","ARG_OF_PERICENTER":"41.6569","TLE_LINE2":"2 47830  53.0549 120.6177 0001886  41.6569 318.4563 15.06404244 75707","MEAN_ELEMENT_THEORY":"SGP4","TIME_SYSTEM":"UTC","LAUNCH_DATE":"2021-03-11"},{"REF_FRAME":"TEME","CENTER_NAME":"EARTH","INCLINATION":"53.0541","SITE":"AFETR","OBJECT_TYPE":"PAYLOAD","BSTAR":"0.00028263000000","EPHEMERIS_TYPE":"0","APOAPSIS":"548.428","PERIAPSIS":"545.960","OBJECT_NAME":"STARLINK-2420","CLASSIFICATION_TYPE":"U","MEAN_MOTION":"15.06406486","OBJECT_ID":"2021-018AW","PERIOD":"95.592","GP_ID":"208270583","EPOCH":"2022-07-16T21:20:42.822528","SEMIMAJOR_AXIS":"6925.329","MEAN_ANOMALY":"301.5625","MEAN_MOTION_DOT":"0.00003931","REV_AT_EPOCH":"7612","RCS_SIZE":"LARGE","ELEMENT_SET_NO":"999","MEAN_MOTION_DDOT":"0.0000000000000","FILE":"3515618","DECAY_DATE":null,"TLE_LINE1":"1 47831U 21018AW  22197.88938452  .00003931  00000-0  28263-3 0  9993","NORAD_CAT_ID":"47831","COUNTRY_CODE":"US","ECCENTRICITY":"0.00017820","RA_OF_ASC_NODE":"95.3201","ARG_OF_PERICENTER":"58.5538","TLE_LINE2":"2 47831  53.0541  95.3201 0001782  58.5538 301.5625 15.06406486 76123","MEAN_ELEMENT_THEORY":"SGP4","TIME_SYSTEM":"UTC","LAUNCH_DATE":"2021-03-11"},{"MEAN_MOTION_DOT":"0.00004527","MEAN_ANOMALY":"283.2526","REV_AT_EPOCH":"7542","RCS_SIZE":"LARGE","GP_ID":"208246981","EPOCH":"2022-07-16T04:22:16.061376","SEMIMAJOR_AXIS":"6925.328","CLASSIFICATION_TYPE":"U","MEAN_MOTION":"15.06406550","OBJECT_ID":"2021-018AX","PERIOD":"95.592","PERIAPSIS":"546.079","OBJECT_NAME":"STARLINK-2422","BSTAR":"0.00032255000000","EPHEMERIS_TYPE":"0","APOAPSIS":"548.308","OBJECT_TYPE":"PAYLOAD","CENTER_NAME":"EARTH","INCLINATION":"53.0547","SITE":"AFETR","REF_FRAME":"TEME","TIME_SYSTEM":"UTC","LAUNCH_DATE":"2021-03-11","TLE_LINE2":"2 47832  53.0547 113.4837 0001610  76.8643 283.2526 15.06406550 75427","MEAN_ELEMENT_THEORY":"SGP4","ECCENTRICITY":"0.00016100","RA_OF_ASC_NODE":"113.4837","ARG_OF_PERICENTER":"76.8643","COUNTRY_CODE":"US","NORAD_CAT_ID":"47832","DECAY_DATE":null,"TLE_LINE1":"1 47832U 21018AX  22197.18213034  .00004527  00000-0  32255-3 0  9997","MEAN_MOTION_DDOT":"0.0000000000000","FILE":"3515513","ELEMENT_SET_NO":"999"},{"MEAN_MOTION_DOT":"0.00006106","MEAN_ANOMALY":"291.3042","RCS_SIZE":"LARGE","REV_AT_EPOCH":"7591","GP_ID":"208270082","EPOCH":"2022-07-16T20:54:49.434336","SEMIMAJOR_AXIS":"6925.311","CLASSIFICATION_TYPE":"U","MEAN_MOTION":"15.06412345","PERIOD":"95.591","OBJECT_ID":"2021-018AY","PERIAPSIS":"545.850","OBJECT_NAME":"STARLINK-2423","BSTAR":"0.00042829000000","EPHEMERIS_TYPE":"0","APOAPSIS":"548.502","OBJECT_TYPE":"PAYLOAD","CENTER_NAME":"EARTH","INCLINATION":"53.0531","SITE":"AFETR","REF_FRAME":"TEME","TIME_SYSTEM":"UTC","LAUNCH_DATE":"2021-03-11","TLE_LINE2":"2 47833  53.0531 110.3931 0001915  68.8152 291.3042 15.06412345 75912","MEAN_ELEMENT_THEORY":"SGP4","RA_OF_ASC_NODE":"110.3931","ECCENTRICITY":"0.00019150","ARG_OF_PERICENTER":"68.8152","COUNTRY_CODE":"US","NORAD_CAT_ID":"47833","DECAY_DATE":null,"TLE_LINE1":"1 47833U 21018AY  22197.87140549  .00006106  00000-0  42829-3 0  9997","MEAN_MOTION_DDOT":"0.0000000000000","FILE":"3515618","ELEMENT_SET_NO":"999"},{"COUNTRY_CODE":"US","ARG_OF_PERICENTER":"58.4047","ECCENTRICITY":"0.00011200","RA_OF_ASC_NODE":"112.1244","MEAN_ELEMENT_THEORY":"SGP4","TLE_LINE2":"2 47834  53.0538 112.1244 0001120  58.4047 301.7052 15.06402015 75856","LAUNCH_DATE":"2021-03-11","TIME_SYSTEM":"UTC","ELEMENT_SET_NO":"999","FILE":"3515362","MEAN_MOTION_DDOT":"0.0000000000000","TLE_LINE1":"1 47834U 21018AZ  22197.48438179  .00003097  00000-0  22669-3 0  9990","DECAY_DATE":null,"NORAD_CAT_ID":"47834","OBJECT_NAME":"STARLINK-2424","PERIAPSIS":"546.432","OBJECT_ID":"2021-018AZ","PERIOD":"95.592","MEAN_MOTION":"15.06402015","CLASSIFICATION_TYPE":"U","SEMIMAJOR_AXIS":"6925.342","EPOCH":"2022-07-16T11:37:30.586656","GP_ID":"208240550","REV_AT_EPOCH":"7585","RCS_SIZE":"LARGE","MEAN_MOTION_DOT":"0.00003097","MEAN_ANOMALY":"301.7052","REF_FRAME":"TEME","SITE":"AFETR","INCLINATION":"53.0538","CENTER_NAME":"EARTH","OBJECT_TYPE":"PAYLOAD","APOAPSIS":"547.983","BSTAR":"0.00022669000000","EPHEMERIS_TYPE":"0"},{"RA_OF_ASC_NODE":"115.3346","ECCENTRICITY":"0.00015030","ARG_OF_PERICENTER":"81.6676","COUNTRY_CODE":"US","TIME_SYSTEM":"UTC","LAUNCH_DATE":"2021-03-11","TLE_LINE2":"2 47835  53.0558 115.3346 0001503  81.6676 278.4483 15.06400811 75780","MEAN_ELEMENT_THEORY":"SGP4","MEAN_MOTION_DDOT":"0.0000000000000","FILE":"3515618","ELEMENT_SET_NO":"999","NORAD_CAT_ID":"47835","DECAY_DATE":null,"TLE_LINE1":"1 47835U 21018BA  22197.90966547  .00002293  00000-0  17275-3 0  9997","OBJECT_ID":"2021-018BA","PERIOD":"95.592","CLASSIFICATION_TYPE":"U","MEAN_MOTION":"15.06400811","OBJECT_NAME":"STARLINK-2425","PERIAPSIS":"546.170","MEAN_MOTION_DOT":"0.00002293","MEAN_ANOMALY":"278.4483","RCS_SIZE":"LARGE","REV_AT_EPOCH":"7578","EPOCH":"2022-07-16T21:49:55.096608","SEMIMAJOR_AXIS":"6925.346","GP_ID":"208271083","SITE":"AFETR","INCLINATION":"53.0558","CENTER_NAME":"EARTH","REF_FRAME":"TEME","EPHEMERIS_TYPE":"0","BSTAR":"0.00017275000000","APOAPSIS":"548.252","OBJECT_TYPE":"PAYLOAD"},{"OBJECT_TYPE":"PAYLOAD","BSTAR":"0.00006111400000","EPHEMERIS_TYPE":"0","APOAPSIS":"548.243","REF_FRAME":"TEME","INCLINATION":"53.0549","CENTER_NAME":"EARTH","SITE":"AFETR","GP_ID":"208270824","EPOCH":"2022-07-16T21:37:18.541056","SEMIMAJOR_AXIS":"6925.360","MEAN_ANOMALY":"304.9264","MEAN_MOTION_DOT":"0.00000629","REV_AT_EPOCH":"7586","RCS_SIZE":"LARGE","PERIAPSIS":"546.206","OBJECT_NAME":"STARLINK-2426","CLASSIFICATION_TYPE":"U","MEAN_MOTION":"15.06396368","PERIOD":"95.592","OBJECT_ID":"2021-018BB","DECAY_DATE":null,"TLE_LINE1":"1 47836U 21018BB  22197.90090904  .00000629  00000-0  61114-4 0  9996","NORAD_CAT_ID":"47836","ELEMENT_SET_NO":"999","MEAN_MOTION_DDOT":"0.0000000000000","FILE":"3515618","TLE_LINE2":"2 47836  53.0549 110.3417 0001471  55.1863 304.9264 15.06396368 75865","MEAN_ELEMENT_THEORY":"SGP4","TIME_SYSTEM":"UTC","LAUNCH_DATE":"2021-03-11","COUNTRY_CODE":"US","RA_OF_ASC_NODE":"110.3417","ECCENTRICITY":"0.00014710","ARG_OF_PERICENTER":"55.1863"},{"MEAN_ELEMENT_THEORY":"SGP4","TLE_LINE2":"2 47837  53.0548  90.5097 0002126  61.2359 298.8843 15.06447814 76143","LAUNCH_DATE":"2021-03-11","TIME_SYSTEM":"UTC","COUNTRY_CODE":"US","ARG_OF_PERICENTER":"61.2359","ECCENTRICITY":"0.00021260","RA_OF_ASC_NODE":"90.5097","TLE_LINE1":"1 47837U 21018BC  22197.84374546 -.00008541  00000-0 -55443-3 0  9997","DECAY_DATE":null,"NORAD_CAT_ID":"47837","ELEMENT_SET_NO":"999","FILE":"3515618","MEAN_MOTION_DDOT":"0.0000000000000","GP_ID":"208269583","SEMIMAJOR_AXIS":"6925.202","EPOCH":"2022-07-16T20:14:59.607744","RCS_SIZE":"LARGE","REV_AT_EPOCH":"7614","MEAN_ANOMALY":"298.8843","MEAN_MOTION_DOT":"-0.00008541","PERIAPSIS":"545.595","OBJECT_NAME":"STARLINK-2427","MEAN_MOTION":"15.06447814","CLASSIFICATION_TYPE":"U","PERIOD":"95.589","OBJECT_ID":"2021-018BC","OBJECT_TYPE":"PAYLOAD","APOAPSIS":"548.539","EPHEMERIS_TYPE":"0","BSTAR":"-0.00055443000000","REF_FRAME":"TEME","INCLINATION":"53.0548","CENTER_NAME":"EARTH","SITE":"AFETR"},{"GP_ID":"208270333","SEMIMAJOR_AXIS":"6925.303","EPOCH":"2022-07-16T18:58:03.751680","RCS_SIZE":"LARGE","REV_AT_EPOCH":"7584","MEAN_ANOMALY":"295.7740","MEAN_MOTION_DOT":"0.00004897","PERIAPSIS":"545.739","OBJECT_NAME":"STARLINK-2429","MEAN_MOTION":"15.06414787","CLASSIFICATION_TYPE":"U","OBJECT_ID":"2021-018BD","PERIOD":"95.591","OBJECT_TYPE":"PAYLOAD","APOAPSIS":"548.598","BSTAR":"0.00034732000000","EPHEMERIS_TYPE":"0","REF_FRAME":"TEME","INCLINATION":"53.0546","CENTER_NAME":"EARTH","SITE":"AFETR","MEAN_ELEMENT_THEORY":"SGP4","TLE_LINE2":"2 47838  53.0546 110.7556 0002064  64.3462 295.7740 15.06414787 75848","LAUNCH_DATE":"2021-03-11","TIME_SYSTEM":"UTC","COUNTRY_CODE":"US","ARG_OF_PERICENTER":"64.3462","RA_OF_ASC_NODE":"110.7556","ECCENTRICITY":"0.00020640","TLE_LINE1":"1 47838U 21018BD  22197.79032120  .00004897  00000-0  34732-3 0  9997","DECAY_DATE":null,"NORAD_CAT_ID":"47838","ELEMENT_SET_NO":"999","FILE":"3515618","MEAN_MOTION_DDOT":"0.0000000000000"}];
